OBJECT_NAME,OBJECT_ID,EPOCH,MEAN_MOTION,ECCENTRICITY,INCLINATION,RA_OF_ASC_NODE,ARG_OF_PERICENTER,MEAN_ANOMALY,EPHEMERIS_TYPE,CLASSIFICATION_TYPE,NORAD_CAT_ID,ELEMENT_SET_NO,REV_AT_EPOCH,BSTAR,MEAN_MOTION_DOT,MEAN_MOTION_DDOT
DUBAISAT-1,2009-041B,2026-06-03T07:39:28.614816,14.75100900,.00116712,98.0035,287.7304,113.0569,247.1872,0,U,35682,999,90305,.16473908E-3,.1061E-4,0
OCEANSAT-2,2009-051A,2026-06-04T04:32:21.346944,13.99662340,.0014519,98.2321,143.3374,276.0806,83.8707,0,U,35931,999,87751,.18079E-3,.227E-5,0
WORLDVIEW-2 (WV-2),2009-055A,2026-06-04T03:37:42.792672,14.37895505,.0003149,98.4737,228.7802,257.1678,102.9157,0,U,35946,999,87377,.6906E-4,.165E-5,0
SMOS,2009-059A,2026-06-04T01:18:57.064896,14.39765382,.0001347,98.4425,342.5821,92.9885,267.1457,0,U,36036,999,87156,.10702E-3,.292E-5,0
YAOGAN-7,2009-069A,2026-06-03T18:02:46.627584,14.77995556,.0026031,98.0087,40.7010,83.0152,277.4018,0,U,36110,999,88764,.92742922E-4,.62E-5,0
TANDEM-X,2010-030A,2026-06-01T10:46:51.497760,15.19149361,.00017833,97.4445,160.3804,80.8335,279.3101,0,U,36605,999,88425,.38591092E-4,.743E-5,0
CARTOSAT-2B,2010-035A,2026-06-04T03:27:21.000384,14.78642945,.0010244,97.9955,205.7758,228.9272,131.1055,0,U,36795,999,85792,.61905E-4,.401E-5,0
YAOGAN-10,2010-038A,2026-06-04T05:27:56.488032,14.85306247,.0001608,97.8975,178.7350,88.1510,42.4803,0,U,36834,999,85528,.20066E-3,.167E-4,0
COSMO-SKYMED 4,2010-060A,2026-06-04T03:27:36.050400,14.82159777,.0001418,97.8881,338.9330,84.3974,275.7401,0,U,37216,999,84263,.11939E-3,.898E-5,0
RESOURCESAT-2,2011-015A,2026-06-04T05:00:55.902240,14.21603556,.0010192,98.7646,222.7399,297.2827,62.7312,0,U,37387,999,78433,.70613E-4,.111E-5,0
HAIYANG-2A,2011-043A,2026-06-04T05:26:43.198368,13.74640680,.0006546,99.3390,158.1876,116.4887,243.6934,0,U,37781,999,74487,-.22722E-3,-.259E-5,0
RASAT,2011-044D,2026-06-04T03:57:46.534752,14.68152876,.0019359,98.0574,246.7604,231.7617,215.8861,0,U,37791,999,79127,.82852E-4,.428E-5,0
SRMSAT,2011-058D,2026-06-01T07:49:45.421824,14.11572059,.00118641,19.9701,155.4732,30.5063,85.9028,0,U,37841,999,75557,.70452217E-4,.395E-5,0
PLEIADES 1A,2011-076F,2026-06-04T03:56:36.938688,14.58562401,.000145,98.1978,230.4411,101.9565,342.2629,0,U,38012,999,77009,.86363E-4,.356E-5,0
ZIYUAN 1-02C (ZY 1-02C),2011-079A,2026-06-04T05:03:50.215104,14.38203849,.0006296,98.4072,222.7899,358.6527,94.6873,0,U,38038,999,75734,.15066E-3,.415E-5,0
ARIRANG-3 (KOMPSAT-3),2012-025B,2026-06-04T04:01:29.857152,14.62194106,.0006037,98.1171,112.8530,143.2342,216.9274,0,U,38338,999,74944,.10798E-3,.497E-5,0
EXACTVIEW-1 (ADS-1B),2012-039C,2026-06-03T06:25:43.227552,14.24980263,.00104098,98.9761,271.3447,206.5850,153.4796,0,U,38709,999,72072,.83610537E-4,.149E-5,0
SPOT 6,2012-047A,2026-06-04T03:55:31.319616,14.58554845,.0001381,98.2122,222.6236,94.2336,265.9021,0,U,38755,999,73115,.84673E-4,.348E-5,0
PLEIADES 1B,2012-068A,2026-06-04T04:22:43.608288,14.58552186,.0001521,98.1948,230.4125,97.3651,262.7721,0,U,39019,999,71895,.9215E-4,.383E-5,0
GOKTURK 2,2012-073A,2026-06-04T04:42:37.302912,14.75530839,.0001988,97.6818,353.2786,64.3224,295.8191,0,U,39030,999,72259,.14443E-3,.936E-5,0
LANDSAT 8,2013-008A,2026-06-04T02:45:17.688384,14.57109822,.000145,98.2303,225.4047,97.7985,262.3378,0,U,39084,999,69599,.10323E-3,.42E-5,0
SARAL,2013-009A,2026-06-04T04:36:33.373152,14.32852736,.0001451,98.5557,341.9241,4.5997,355.5201,0,U,39086,999,69374,.48672E-4,.89E-6,0
GAOFEN-1,2013-018A,2026-06-04T04:29:33.247104,14.76522064,.0016118,97.9097,227.5183,311.9828,48.0008,0,U,39150,999,70632,.28875E-4,.151E-5,0
VNREDSAT 1,2013-021B,2026-06-04T04:17:38.771808,14.64842395,.0001624,97.9083,209.0939,92.1519,267.9870,0,U,39160,999,69838,.10949E-3,.539E-5,0
ARIRANG-5 (KOMPSAT-5),2013-042A,2026-06-04T04:43:32.800224,15.04540214,.0003717,97.6199,342.0789,158.5396,201.5987,0,U,39227,999,70190,.16397E-3,.2237E-4,0
SKYSAT-A,2013-066C,2026-06-04T00:42:43.056864,15.12898418,.0021316,97.3816,204.8461,4.4065,355.7350,0,U,39418,999,68649,.20369E-3,.354E-4,0
DUBAISAT-2,2013-066D,2026-06-04T05:11:13.700256,15.10081243,.0013243,97.4565,145.7012,79.4116,280.8605,0,U,39419,999,68443,.25764E-3,.4141E-4,0
GPM-CORE,2014-009C,2026-06-04T03:12:23.789088,15.45384193,.0012028,64.9729,351.8702,268.6924,91.2839,0,U,39574,999,69579,.19447E-3,.9118E-4,0
SENTINEL-1A,2014-016A,2026-06-04T04:50:34.497024,14.59198798,.0001432,98.1774,162.9235,81.0591,279.0770,0,U,39634,999,64812,.33724E-4,.113E-5,0
KAZEOSAT 1,2014-024A,2026-06-04T04:27:08.629920,14.42074517,.0001502,98.3207,227.9552,79.1943,280.9416,0,U,39731,999,63668,.70943E-4,.19E-5,0
