DUBAISAT-1              
1 35682U 09041B   26154.31908119  .00001061  00000+0  16474-3 0  9990
2 35682  98.0035 287.7304 0011671 113.0569 247.1872 14.75100900903058
OCEANSAT-2              
1 35931U 09051A   26155.18913596  .00000227  00000+0  18079-3 0  9995
2 35931  98.2321 143.3374 0014519 276.0806  83.8707 13.99662340877516
WORLDVIEW-2 (WV-2)      
1 35946U 09055A   26155.15118973  .00000165  00000+0  69060-4 0  9996
2 35946  98.4737 228.7802 0003149 257.1678 102.9157 14.37895505873773
SMOS                    
1 36036U 09059A   26155.05482714  .00000292  00000+0  10702-3 0  9996
2 36036  98.4425 342.5821 0001347  92.9885 267.1457 14.39765382871560
YAOGAN-7                
1 36110U 09069A   26154.75192856  .00000620  00000+0  92743-4 0  9992
2 36110  98.0087  40.7010 0026031  83.0152 277.4018 14.77995556887648
TANDEM-X                
1 36605U 10030A   26152.44920715  .00000743  00000+0  38591-4 0  9995
2 36605  97.4445 160.3804 0001783  80.8335 279.3101 15.19149361884253
CARTOSAT-2B             
1 36795U 10035A   26155.14399306  .00000401  00000+0  61905-4 0  9992
2 36795  97.9955 205.7758 0010244 228.9272 131.1055 14.78642945857920
YAOGAN-10               
1 36834U 10038A   26155.22773713  .00001670  00000+0  20066-3 0  9997
2 36834  97.8975 178.7350 0001608  88.1510  42.4803 14.85306247855289
COSMO-SKYMED 4          
1 37216U 10060A   26155.14416725  .00000898  00000+0  11939-3 0  9995
2 37216  97.8881 338.9330 0001418  84.3974 275.7401 14.82159777842630
RESOURCESAT-2           
1 37387U 11015A   26155.20898035  .00000111  00000+0  70613-4 0  9993
2 37387  98.7646 222.7399 0010192 297.2827  62.7312 14.21603556784333
HAIYANG-2A              
1 37781U 11043A   26155.22688887 -.00000259  00000+0 -22722-3 0  9998
2 37781  99.3390 158.1876 0006546 116.4887 243.6934 13.74640680744873
RASAT                   
1 37791U 11044D   26155.16512193  .00000428  00000+0  82852-4 0  9996
2 37791  98.0574 246.7604 0019359 231.7617 215.8861 14.68152876791270
SRMSAT                  
1 37841U 11058D   26152.32622016  .00000395  00000+0  70452-4 0  9994
2 37841  19.9701 155.4732 0011864  30.5063  85.9028 14.11572059755572
PLEIADES 1A             
1 38012U 11076F   26155.16431642  .00000356  00000+0  86363-4 0  9998
2 38012  98.1978 230.4411 0001450 101.9565 342.2629 14.58562401770097
ZIYUAN 1-02C (ZY 1-02C) 
1 38038U 11079A   26155.21099786  .00000415  00000+0  15066-3 0  9991
2 38038  98.4072 222.7899 0006296 358.6527  94.6873 14.38203849757347
ARIRANG-3 (KOMPSAT-3)   
1 38338U 12025B   26155.16770668  .00000497  00000+0  10798-3 0  9992
2 38338  98.1171 112.8530 0006037 143.2342 216.9274 14.62194106749442
EXACTVIEW-1 (ADS-1B)    
1 38709U 12039C   26154.26786143  .00000149  00000+0  83611-4 0  9993
2 38709  98.9761 271.3447 0010409 206.5850 153.4796 14.24980263720729
SPOT 6                  
1 38755U 12047A   26155.16355694  .00000348  00000+0  84673-4 0  9996
2 38755  98.2122 222.6236 0001381  94.2336 265.9021 14.58554845731158
PLEIADES 1B             
1 39019U 12068A   26155.18244917  .00000383  00000+0  92150-4 0  9998
2 39019  98.1948 230.4125 0001521  97.3651 262.7721 14.58552186718952
GOKTURK 2               
1 39030U 12073A   26155.19626508  .00000936  00000+0  14443-3 0  9990
2 39030  97.6818 353.2786 0001988  64.3224 295.8191 14.75530839722592
LANDSAT 8               
1 39084U 13008A   26155.11478806  .00000420  00000+0  10323-3 0  9997
2 39084  98.2303 225.4047 0001450  97.7985 262.3378 14.57109822695998
SARAL                   
1 39086U 13009A   26155.19205293  .00000089  00000+0  48672-4 0  9996
2 39086  98.5557 341.9241 0001451   4.5997 355.5201 14.32852736693747
GAOFEN-1                
1 39150U 13018A   26155.18719036  .00000151  00000+0  28875-4 0  9995
2 39150  97.9097 227.5183 0016118 311.9828  48.0008 14.76522064706323
VNREDSAT 1              
1 39160U 13021B   26155.17892097  .00000539  00000+0  10949-3 0  9990
2 39160  97.9083 209.0939 0001624  92.1519 267.9870 14.64842395698388
ARIRANG-5 (KOMPSAT-5)   
1 39227U 13042A   26155.19690741  .00002237  00000+0  16397-3 0  9991
2 39227  97.6199 342.0789 0003717 158.5396 201.5987 15.04540214701909
SKYSAT-A                
1 39418U 13066C   26155.02966501  .00003540  00000+0  20369-3 0  9993
2 39418  97.3816 204.8461 0021316   4.4065 355.7350 15.12898418686496
DUBAISAT-2              
1 39419U 13066D   26155.21613079  .00004141  00000+0  25764-3 0  9996
2 39419  97.4565 145.7012 0013243  79.4116 280.8605 15.10081243684434
GPM-CORE                
1 39574U 14009C   26155.13360867  .00009118  00000+0  19447-3 0  9991
2 39574  64.9729 351.8702 0012028 268.6924  91.2839 15.45384193695794
SENTINEL-1A             
1 39634U 14016A   26155.20178816  .00000113  00000+0  33724-4 0  9996
2 39634  98.1774 162.9235 0001432  81.0591 279.0770 14.59198798648129
KAZEOSAT 1              
1 39731U 14024A   26155.18551655  .00000190  00000+0  70943-4 0  9995
2 39731  98.3207 227.9552 0001502  79.1943 280.9416 14.42074517636681
